AMGU-1 (AMURSAT)        
1 44394U 19038J   22005.57930958  .00003681  00000+0  20194-3 0  9996
2 44394  97.6128 334.6390 0020274 340.8386  19.2070 15.14631606138367
DOT-1                   
1 44399U 19038P   22005.48007426  .00001613  00000+0  93696-4 0  9997
2 44399  97.6192 333.7604 0023534 344.8547  15.1977 15.13369766138282
SOKRAT                  
1 44404U 19038U   22005.55464697  .00002423  00000+0  13472-3 0  9992
2 44404  97.6154 334.3315 0020631 342.5522  17.4998 15.14487935138341
LUCKY-7                 
1 44406U 19038W   22005.46164779  .00002189  00000+0  12463-3 0  9990
2 44406  97.6184 334.0275 0023104 337.1622  22.8579 15.13699237138295
D-STAR ONE (EXOCONNECT) 
1 44410U 19038AA  22005.45332994  .00004675  00000+0  24746-3 0  9999
2 44410  97.6116 334.7225 0020009 339.7494  20.2943 15.15765689138376
NARSSCUBE-2             
1 44415U 19022E   22005.51305679  .00002659  00000+0  96067-4 0  9990
2 44415  51.6391 184.8022 0011226 186.6405 173.4429 15.32153827135110
KRAKSAT                 
1 44427U 98067QM  22005.38366244  .00469123  11235-3  69741-3 0  9996
2 44427  51.6321 338.4982 0004713  78.3351  51.1106 16.04253725143344
DUCHIFAT-3              
1 44854U 19089C   22005.33397666  .00001669  00000+0  13811-3 0  9992
2 44854  36.9639 346.4287 0008552 327.6494  32.3723 14.99947293113420
OPS-SAT                 
1 44878U 19092F   22005.57435682  .00002783  00000+0  14208-3 0  9998
2 44878  97.4741 191.2906 0013225 181.3843 178.7356 15.17469627113475
FLORIPASAT-1            
1 44885U 19093G   22005.44585968  .00000843  00000+0  11132-3 0  9994
2 44885  97.9120  87.8286 0014619   9.6890 350.4600 14.82549288110697
HUSKYSAT-1 (HO-107)     
1 45119U 19071J   22005.59170350  .00005270  00000+0  14798-3 0  9992
2 45119  51.6403 135.2960 0010135 301.6015  58.3979 15.38200454108252
G-SAT                   
1 45597U 98067RK  22005.43650763  .00037790  00000+0  32151-3 0  9993
2 45597  51.6373  29.6705 0004603  20.2864 339.8315 15.69193838 96180
QUETZAL-1               
1 45598U 98067RL  22005.45573247  .00084608  00000+0  47216-3 0  9995
2 45598  51.6374  22.2429 0004720  44.9078 315.2304 15.78662857 96216
BY70-2                  
1 45857U 20042B   22005.54581247  .00003037  00000+0  42948-3 0  9994
2 45857  97.9702  84.1356 0009292 280.9198  79.0957 14.77834777 81383
SALSAT                  
1 46495U 20068K   22005.57151670  .00001687  00000+0  12697-3 0  9994
2 46495  97.7112 307.0924 0018094 107.6643 252.6558 15.03769210 69700
NETSAT-4                
1 46504U 20068U   22005.45559416  .00000958  00000+0  76790-4 0  9997
2 46504  97.7078 305.8516 0011132 150.5073 209.6777 15.02466648 69562
NETSAT-3                
1 46505U 20068V   22005.40024133  .00000393  00000+0  34264-4 0  9999
2 46505  97.7099 305.7439 0010699 153.9564 206.2197 15.02444003 69568
NETSAT-1                
1 46506U 20068W   22005.41162786  .00000883  00000+0  71223-4 0  9998
2 46506  97.7097 305.7050 0010145 159.8936 200.2685 15.02416320 69567
NETSAT-2                
1 46507U 20068X   22005.48509711  .00001046  00000+0  83547-4 0  9993
2 46507  97.7118 305.7750 0009628 166.2871 193.8548 15.02402642 69526
BY70-3                  
1 46839U 20079N   22005.52236490  .00007731  00000+0  22279-3 0  9990
2 46839  97.2216  80.3985 0006233 186.9685 288.1308 15.35984964 65194
SPOC                    
1 46921U 98067RR  22005.35158122  .00019382  00000+0  22618-3 0  9992
2 46921  51.6396  44.9215 0001877  74.6310 285.4891 15.61645072 66324
BOBCAT-1                
1 46922U 98067RS  22005.30782231  .00042396  00000+0  36975-3 0  9994
2 46922  51.6408  38.6631 0002264  55.8137 304.3075 15.68543127 66364
NEUTRON-1               
1 46923U 98067RT  22005.38374157  .00020784  00000+0  24298-3 0  9999
2 46923  51.6401  45.1388 0001602  82.4807 277.6368 15.61546761 66351
DESCENT                 
1 46927U 98067RX  22005.31986519  .00021008  00000+0  24414-3 0  9997
2 46927  51.6402  45.4592 0001270 103.5916 256.5219 15.61695011 66256
UVSQ-SAT                
1 47438U 21006AB  22005.16940297  .00001898  00000+0  10830-3 0  9992
2 47438  97.4623  67.5633 0013934 118.2049 242.0591 15.13873252 52562
SOMP2B                  
1 47445U 21006AJ  22005.60387827  .00001533  00000+0  88684-4 0  9992
2 47445  97.4597  67.7746 0013521 120.2869 239.9703 15.13668705 52624
WARP-01                 
1 47924U 98067SA  22005.53910356  .00031704  00000+0  36153-3 0  9992
2 47924  51.6394  50.6380 0002938 111.2757 248.8551 15.61933794 46252
RSP-01                  
1 47925U 98067SB  22005.53832017  .00022050  00000+0  27933-3 0  9990
2 47925  51.6412  52.1611 0002608  45.5723 314.5483 15.59395386 46211
TAUSAT-1                
1 47926U 98067SC  22005.52694592  .00030869  00000+0  34678-3 0  9995
2 47926  51.6397  49.8149 0003487  44.3713 315.7560 15.62333094 46238
TSURU                   
1 47927U 98067SD  22005.21812230  .00019315  00000+0  25509-3 0  9999
2 47927  51.6403  54.5211 0002636  44.4088 315.7115 15.58380974 46152
STARS-EC                
1 47928U 98067SE  22005.52516372  .00036846  00000+0  40549-3 0  9991
2 47928  51.6395  50.5552 0003018 114.5648 245.5661 15.62774811 46218
MAYA-2                  
1 47929U 98067SF  22005.53437568  .00018992  00000+0  25084-3 0  9991
2 47929  51.6405  52.8804 0002677  44.8864 315.2344 15.58392088 46165
HIROGARI (OPUSAT-II)    
1 47930U 98067SG  22005.56157628  .00036866  00000+0  39242-3 0  9993
2 47930  51.6392  49.3105 0003271  33.6061 326.5141 15.63626678 46254
GUARANISAT-1            
1 47931U 98067SH  22005.53005307  .00019412  00000+0  25567-3 0  9990
2 47931  51.6415  52.8583 0002697  43.6352 316.4853 15.58450055 46206
DIY-1 (ARDUIQUBE)       
1 47963U 21022AH  22005.42376685  .00004243  00000+0  27188-3 0  9997
2 47963  97.5453 269.1752 0018544 339.3318  20.7159 15.08929810 42337
